[
    {
        "Altitude(m)": 604983.0530196609,
        "Argument of Periapsis(deg)": 0.0,
        "Eccentricity": 0.0,
        "Inclination(deg)": 60.0,
        "Latitude(deg)": -0.09269004984033673,
        "Longitude(deg)": -144.91608376759834,
        "Mean Anomaly(deg)": 180.0,
        "RAAN(deg)": 135.0,
        "Satellite Name": "Test1 605",
        "Satellite Number": 605,
        "Semi-Major Axis(m)": 6980739.136638005,
        "Time(s)": 0
    },
    {
        "Altitude(m)": 605055.3327781162,
        "Argument of Periapsis(deg)": 0.00010418945913296404,
        "Eccentricity": 0.0,
        "Inclination(deg)": 60.0,
        "Latitude(deg)": -0.6331004172171983,
        "Longitude(deg)": -144.64795983717013,
        "Mean Anomaly(deg)": 180.62010614546182,
        "RAAN(deg)": 134.99957995086024,
        "Satellite Name": "Test1 605",
        "Satellite Number": 605,
        "Semi-Major Axis(m)": 6980739.136638005,
        "Time(s)": 10
    }
]